{
  "type": "FeatureCollection",
  "features": [
    {
      "type": "Feature",
      "properties": {
        "norad_id": 30080,
        "name": "FENGYUN 1C DEB",
        "group": "fengyun-1c-debris",
        "lat": -41.972214709144936,
        "lon": 150.93050940396472,
        "alt_km": 955.9672840600651,
        "timestamp": "2025-12-24T16:52:41.805712+00:00",
        "meta_object_name": "FENGYUN 1C DEB",
        "meta_object_id": "1999-025QH",
        "meta_epoch": "2025-12-23T21:22:37.317216",
        "meta_mean_motion": 14.10833773,
        "meta_eccentricity": 0.0133481,
        "meta_inclination": 98.6996,
        "meta_ra_of_asc_node": 338.0599,
        "meta_arg_of_pericenter": 29.1188,
        "meta_mean_anomaly": 29.1354,
        "meta_ephemeris_type": 0,
        "meta_classification_type": "U",
        "meta_norad_cat_id": 30080,
        "meta_element_set_no": 999,
        "meta_rev_at_epoch": 97395,
        "meta_bstar": 0.00030906,
        "meta_mean_motion_dot": 5.59e-06,
        "meta_mean_motion_ddot": 0,
        "tle_line1": "1 30080U 99025QH  25357.89070969  .00000559  00000+0  30906-3 0  9995",
        "tle_line2": "2 30080  98.6996 338.0599 0133481  29.1188  29.1354 14.10833773973950"
      },
      "geometry": {
        "type": "Point",
        "coordinates": [
          150.93050940396472,
          -41.972214709144936
        ]
      }
    },
    {
      "type": "Feature",
      "properties": {
        "norad_id": 30081,
        "name": "FENGYUN 1C DEB",
        "group": "fengyun-1c-debris",
        "lat": -57.99974807613205,
        "lon": 160.0852517565035,
        "alt_km": 884.7835858047829,
        "timestamp": "2025-12-24T16:52:41.805723+00:00",
        "meta_object_name": "FENGYUN 1C DEB",
        "meta_object_id": "1999-025QJ",
        "meta_epoch": "2025-12-23T22:50:53.294208",
        "meta_mean_motion": 13.98293259,
        "meta_eccentricity": 0.0075712,
        "meta_inclination": 98.9238,
        "meta_ra_of_asc_node": 353.9174,
        "meta_arg_of_pericenter": 308.0479,
        "meta_mean_anomaly": 112.186,
        "meta_ephemeris_type": 0,
        "meta_classification_type": "U",
        "meta_norad_cat_id": 30081,
        "meta_element_set_no": 999,
        "meta_rev_at_epoch": 96511,
        "meta_bstar": 0.0003164,
        "meta_mean_motion_dot": 4.19e-06,
        "meta_mean_motion_ddot": 0,
        "tle_line1": "1 30081U 99025QJ  25357.95200572  .00000419  00000+0  31640-3 0  9999",
        "tle_line2": "2 30081  98.9238 353.9174 0075712 308.0479 112.1860 13.98293259965110"
      },
      "geometry": {
        "type": "Point",
        "coordinates": [
          160.0852517565035,
          -57.99974807613205
        ]
      }
    },
    {
      "type": "Feature",
      "properties": {
        "norad_id": 30082,
        "name": "FENGYUN 1C DEB",
        "group": "fengyun-1c-debris",
        "lat": 59.12067762432966,
        "lon": 123.40465806923788,
        "alt_km": 465.25135189773846,
        "timestamp": "2025-12-24T16:52:41.805733+00:00",
        "meta_object_name": "FENGYUN 1C DEB",
        "meta_object_id": "1999-025QK",
        "meta_epoch": "2025-12-23T13:25:04.311552",
        "meta_mean_motion": 15.15568213,
        "meta_eccentricity": 0.00702775,
        "meta_inclination": 98.8196,
        "meta_ra_of_asc_node": 287.0286,
        "meta_arg_of_pericenter": 130.39,
        "meta_mean_anomaly": 230.3491,
        "meta_ephemeris_type": 0,
        "meta_classification_type": "U",
        "meta_norad_cat_id": 30082,
        "meta_element_set_no": 999,
        "meta_rev_at_epoch": 1457,
        "meta_bstar": 0.0012376659,
        "meta_mean_motion_dot": 0.00024979,
        "meta_mean_motion_ddot": 0,
        "tle_line1": "1 30082U 99025QK  25357.55907768  .00024979  00000+0  12377-2 0  9999",
        "tle_line2": "2 30082  98.8196 287.0286 0070277 130.3900 230.3491 15.15568213 14574"
      },
      "geometry": {
        "type": "Point",
        "coordinates": [
          123.40465806923788,
          59.12067762432966
        ]
      }
    },
    {
      "type": "Feature",
      "properties": {
        "norad_id": 30086,
        "name": "FENGYUN 1C DEB",
        "group": "fengyun-1c-debris",
        "lat": -80.76368797133229,
        "lon": 137.43150253452487,
        "alt_km": 931.476203877789,
        "timestamp": "2025-12-24T16:52:41.805744+00:00",
        "meta_object_name": "FENGYUN 1C DEB",
        "meta_object_id": "1999-025QP",
        "meta_epoch": "2025-12-23T21:38:27.610080",
        "meta_mean_motion": 14.03845404,
        "meta_eccentricity": 0.0061951,
        "meta_inclination": 98.9095,
        "meta_ra_of_asc_node": 31.3626,
        "meta_arg_of_pericenter": 103.6878,
        "meta_mean_anomaly": 75.0202,
        "meta_ephemeris_type": 0,
        "meta_classification_type": "U",
        "meta_norad_cat_id": 30086,
        "meta_element_set_no": 999,
        "meta_rev_at_epoch": 96852,
        "meta_bstar": 0.00029655,
        "meta_mean_motion_dot": 4.33e-06,
        "meta_mean_motion_ddot": 0,
        "tle_line1": "1 30086U 99025QP  25357.90170845  .00000433  00000+0  29655-3 0  9997",
        "tle_line2": "2 30086  98.9095  31.3626 0061951 103.6878  75.0202 14.03845404968524"
      },
      "geometry": {
        "type": "Point",
        "coordinates": [
          137.43150253452487,
          -80.76368797133229
        ]
      }
    },
    {
      "type": "Feature",
      "properties": {
        "norad_id": 30087,
        "name": "FENGYUN 1C DEB",
        "group": "fengyun-1c-debris",
        "lat": 73.29273215872344,
        "lon": -119.97076627650362,
        "alt_km": 609.1518083039209,
        "timestamp": "2025-12-24T16:52:41.805754+00:00",
        "meta_object_name": "FENGYUN 1C DEB",
        "meta_object_id": "1999-025QQ",
        "meta_epoch": "2025-12-24T01:29:20.326848",
        "meta_mean_motion": 14.35724137,
        "meta_eccentricity": 0.02303689,
        "meta_inclination": 98.379,
        "meta_ra_of_asc_node": 29.9964,
        "meta_arg_of_pericenter": 87.7077,
        "meta_mean_anomaly": 303.632,
        "meta_ephemeris_type": 0,
        "meta_classification_type": "U",
        "meta_norad_cat_id": 30087,
        "meta_element_set_no": 999,
        "meta_rev_at_epoch": 98858,
        "meta_bstar": 0.00024148674,
        "meta_mean_motion_dot": 8.95e-06,
        "meta_mean_motion_ddot": 0,
        "tle_line1": "1 30087U 99025QQ  25358.06204082  .00000895  00000+0  24149-3 0  9992",
        "tle_line2": "2 30087  98.3790  29.9964 0230368  87.7077 303.6320 14.35724137988585"
      },
      "geometry": {
        "type": "Point",
        "coordinates": [
          -119.97076627650362,
          73.29273215872344
        ]
      }
    },
    {
      "type": "Feature",
      "properties": {
        "norad_id": 30088,
        "name": "FENGYUN 1C DEB",
        "group": "fengyun-1c-debris",
        "lat": 11.175543183025939,
        "lon": -19.040029533588864,
        "alt_km": 908.0142750045707,
        "timestamp": "2025-12-24T16:52:41.805765+00:00",
        "meta_object_name": "FENGYUN 1C DEB",
        "meta_object_id": "1999-025QR",
        "meta_epoch": "2025-12-23T21:03:06.122016",
        "meta_mean_motion": 14.3593474,
        "meta_eccentricity": 0.0201094,
        "meta_inclination": 98.3554,
        "meta_ra_of_asc_node": 341.8225,
        "meta_arg_of_pericenter": 214.0094,
        "meta_mean_anomaly": 208.612,
        "meta_ephemeris_type": 0,
        "meta_classification_type": "U",
        "meta_norad_cat_id": 30088,
        "meta_element_set_no": 999,
        "meta_rev_at_epoch": 98832,
        "meta_bstar": 0.00026157,
        "meta_mean_motion_dot": 9.06e-06,
        "meta_mean_motion_ddot": 0,
        "tle_line1": "1 30088U 99025QR  25357.87715419  .00000906  00000+0  26157-3 0  9996",
        "tle_line2": "2 30088  98.3554 341.8225 0201094 214.0094 208.6120 14.35934740988325"
      },
      "geometry": {
        "type": "Point",
        "coordinates": [
          -19.040029533588864,
          11.175543183025939
        ]
      }
    },
    {
      "type": "Feature",
      "properties": {
        "norad_id": 30089,
        "name": "FENGYUN 1C DEB",
        "group": "fengyun-1c-debris",
        "lat": 18.226736001938537,
        "lon": 87.33446801617069,
        "alt_km": 739.4471111820385,
        "timestamp": "2025-12-24T16:52:41.805775+00:00",
        "meta_object_name": "FENGYUN 1C DEB",
        "meta_object_id": "1999-025QS",
        "meta_epoch": "2025-12-24T05:05:23.460576",
        "meta_mean_motion": 14.30318413,
        "meta_eccentricity": 0.0073822,
        "meta_inclination": 98.9038,
        "meta_ra_of_asc_node": 263.8729,
        "meta_arg_of_pericenter": 176.3179,
        "meta_mean_anomaly": 337.5608,
        "meta_ephemeris_type": 0,
        "meta_classification_type": "U",
        "meta_norad_cat_id": 30089,
        "meta_element_set_no": 999,
        "meta_rev_at_epoch": 98643,
        "meta_bstar": 0.00021156602,
        "meta_mean_motion_dot": 5.19e-06,
        "meta_mean_motion_ddot": 0,
        "tle_line1": "1 30089U 99025QS  25358.21207709  .00000519  00000+0  21157-3 0  9999",
        "tle_line2": "2 30089  98.9038 263.8729 0073822 176.3179 337.5608 14.30318413986432"
      },
      "geometry": {
        "type": "Point",
        "coordinates": [
          87.33446801617069,
          18.226736001938537
        ]
      }
    }
  ]
}